{
  "type": "FeatureCollection",
  "features": [
    {
      "type": "Feature",
      "properties": {
        "name": "march_long"
      },
      "geometry": {
        "type": "Polygon",
        "coordinates": [
          [
            [
              17.826169492430104,
              53.51997191459114
            ],
            [
              17.826053344334117,
              53.51962461368669
            ],
            [
              17.826201519180778,
              53.5196076305187
            ],
            [
              17.82631976255559,
              53.51995138318101
            ],
            [
              17.826169492430104,
              53.51997191459114
            ]
          ]
        ]
      }
    }
  ]
}