{
  "type": "FeatureCollection",
  "features": [
    {
      "type": "Feature",
      "properties": {
        "name": "house_short"
      },
      "geometry": {
        "type": "Polygon",
        "coordinates": [
          [
            [
              17.825901727386437,
              53.52048793105119
            ],
            [
              17.826116217652896,
              53.520454945465936
            ],
            [
              17.826048571332677,
              53.52030261300926
            ],
            [
              17.825832952486703,
              53.52034034560523
            ],
            [
              17.825901727386437,
              53.52048793105119
            ]
          ]
        ]
      }
    }
  ]
}